[{"OBJECT_NAME":"OBJECT C","OBJECT_ID":"2023-104C","EPOCH":"2026-03-09T22:39:44.230752","MEAN_MOTION":15.26846312,"ECCENTRICITY":0.00113074,"INCLINATION":97.273,"RA_OF_ASC_NODE":135.3333,"ARG_OF_PERICENTER":3.876,"MEAN_ANOMALY":356.2565,"EPHEMERIS_TYPE":0,"CLASSIFICATION_TYPE":"U","NORAD_CAT_ID":57426,"ELEMENT_SET_NO":999,"REV_AT_EPOCH":14663,"BSTAR":0.00062618506,"MEAN_MOTION_DOT":0.00016495,"MEAN_MOTION_DDOT":0},{"OBJECT_NAME":"STARLINK-35608","OBJECT_ID":"2025-263Z","EPOCH":"2026-03-09T03:20:05.314560","MEAN_MOTION":15.27569338,"ECCENTRICITY":0.00011551,"INCLINATION":43,"RA_OF_ASC_NODE":353.8938,"ARG_OF_PERICENTER":287.9889,"MEAN_ANOMALY":72.0837,"EPHEMERIS_TYPE":0,"CLASSIFICATION_TYPE":"U","NORAD_CAT_ID":66508,"ELEMENT_SET_NO":999,"REV_AT_EPOCH":1881,"BSTAR":0.0012487186,"MEAN_MOTION_DOT":0.00034248,"MEAN_MOTION_DDOT":0}]
